1 53692U 22105AW  22283.58334491 -.01217220  00000-0 -71503-1 0  9993
2 53692  97.6556 163.1815 0002346 129.2248  94.3168 15.14819504  1306